#cP2022 01 16  0  0  0.00000000      96     U IGb14 FIT  EMR
## 2193 000000.00000000   900.00000000 59595 0.0000000000000                    
+   32   G01G02G03G04G05G06G07G08G09G10G11G12G13G14G15G16G17
+        G18G19G20G21G22G23G24G25G26G27G28G29G30G31G32 00 00
+         00 00 00 00 00 00 00 00 00 00 00 00 00 00 00 00 00
+         00 00 00 00 00 00 00 00 00 00 00 00 00 00 00 00 00
+         00 00 00 00 00 00 00 00 00 00 00 00 00 00 00 00 00
++         6  6  6  6  6  6  6  6  6  6  6  6  6  6  6  6  6                    
++         6  6  6  6  6  6  6  6  6  6  6  6  6  6  6  0  0                    
++         0  0  0  0  0  0  0  0  0  0  0  0  0  0  0  0  0                    
++         0  0  0  0  0  0  0  0  0  0  0  0  0  0  0  0  0                    
++         0  0  0  0  0  0  0  0  0  0  0  0  0  0  0  0  0                    
%c G  cc GPS ccc cccc cccc cccc cccc ccccc ccccc ccccc ccccc
%c cc cc ccc ccc cccc cccc cccc cccc ccccc ccccc ccccc ccccc                    
%f  1.2500000  1.025000000  0.00000000000  0.000000000000000
%f  0.0000000  0.000000000  0.00000000000  0.000000000000000                    
%i    0    0    0    0      0      0      0      0         0                    
%i    0    0    0    0      0      0      0      0         0                    
/* CCCCCCCCCCCCCCCCCCCCCCCCCCCCCCCCCCCCCCCCCCCCCCCCCCCCCCCCC                    
/* CCCCCCCCCCCCCCCCCCCCCCCCCCCCCCCCCCCCCCCCCCCCCCCCCCCCCCCCC                    
/* CCCCCCCCCCCCCCCCCCCCCCCCCCCCCCCCCCCCCCCCCCCCCCCCCCCCCCCCC                    
/* PCV:IGS14_2097 OL/AL:FES2004  NONE     YN ORB:CoN CLK:CoN                    
*  2022  1 16 15  0  0.00000000                                                 
PG01 -19586.533250 -10156.946973  14759.070037    455.576562                    
PG02  14197.044525  21846.755906   5486.260784   -648.976475                    
PG03 -15868.232253    450.816850  21173.582127    -80.886605                    
PG04 -26137.681931  -1071.294492   4838.897456   -194.873662                    
PG05   8867.621239  15589.520867 -19703.469206    -68.304159                    
PG06   1076.750892  20332.679373  17087.322730    172.443037                    
PG07 -14378.545576   6014.433549 -21173.966562    302.097381                    
PG08 -21061.342307  -7273.625650 -14729.996809    -52.610718                    
PG09 -24601.193348   7956.250485  -6222.027536   -357.932247                    
PG10  11520.047545 -23646.596451  -2108.460694   -295.303437                    
PG11  11457.724997  23437.939790   5026.036247    -49.478907                    
PG12  14872.014261   3201.924308  21497.147613   -156.916868                    
PG13  13866.364376  13041.898646 -18742.079791    246.093915                    
PG14 -12929.187473  23013.914515  -2610.596612    -71.664281                    
PG15  22064.765715   5508.629735 -14383.710062    -91.295364                    
PG16  -4410.944592 -18587.445492 -18507.819925   -456.665814                    
PG17 -14722.284284  13148.894834  18230.299451    562.057666                    
PG18  13607.645263  -6684.392266 -21815.702507    259.461060                    
PG19  -6187.827990  14347.547448  21188.371320    106.141125                    
PG20   3327.032769  23422.636505 -12332.712005    516.942239                    
PG21 -20729.444027 -15829.440636   7183.699672    156.025431                    
PG22 -13444.091527  -9174.709957  21187.204498   -416.330836                    
PG23  16046.352798 -16840.903379 -12749.310202     10.390448                    
PG24  21163.271896  12436.219597  10357.077684    276.924315                    
PG25  17235.678761 -10060.252911  17107.398829    271.553395                    
PG26   3331.700468 -25119.686213  -7489.944898    174.691676                    
PG27 -11102.573334 -12816.115494 -20730.198907     71.558724                    
PG28  -8477.521120  24653.324315   6191.318771    420.652925                    
PG29  26138.371163  -3547.445191  -3411.348122   -468.265556                    
PG30  -7322.469715  15362.270434 -20268.393450   -507.337789                    
PG31  -2434.784170 -21526.601251  14919.255297   -160.432281                    
PG32   9912.517033 -15133.359834  19506.480849    -51.703320                    
*  2022  1 16 15 15  0.00000000                                                 
PG01 -20465.397188 -11482.539625  12491.360761    455.567663                    
PG02  13543.620660  21489.801833   8213.147841   -648.977447                    
PG03 -15020.239468  -1873.581874  21713.838709    -80.900201                    
PG04 -25463.444856  -1393.831215   7571.903552   -194.872088                    
PG05   8050.753951  17581.482790 -18303.435286    -68.305324                    
PG06   -281.643918  18810.745000  18790.431434    172.452959                    
PG07 -15882.504363   4058.929101 -20610.777023    302.100160                    
PG08 -19332.421493  -7731.428549 -16705.152353    -52.611767                    
PG09 -25184.269611   7790.065397  -3453.469330   -357.931202                    
PG10  11595.717880 -23164.704786  -4966.564883   -295.312109                    
PG11  10835.323369  22984.371403   7756.163443    -49.512214                    
PG12  13818.655902   5500.689661  21742.420271   -156.922152                    
PG13  11684.303766  13187.748956 -20076.556330    246.098945                    
PG14 -12997.815976  22483.333696  -5408.012556    -71.669080                    
PG15  20498.797701   6176.440553 -16323.328776    -91.293196                    
PG16  -3395.092327 -20301.563519 -16777.157611   -456.670434                    
PG17 -16624.605726  13216.550885  16414.862810    562.061979                    
PG18  15091.111549  -4714.100680 -21358.633266    259.454423                    
PG19  -8614.830122  14392.561688  20286.534088    106.145267                    
PG20   2814.447538  24609.078077  -9936.518631    516.942124                    
PG21 -20982.852375 -16384.979782   4467.928184    156.025930                    
PG22 -12772.204701 -11432.281809  20507.809660   -416.322718                    
PG23  15692.927443 -15283.542855 -14969.157190     10.387006                    
PG24  21695.867505  13405.463450   7845.804967    276.924149                    
PG25  16641.448848  -8029.458755  18696.388746    271.558393                    
PG26   3859.732539 -25684.842440  -4779.362243    174.694715                    
PG27  -8770.055513 -13228.248205 -21546.055222     71.578011                    
PG28  -8873.813724  24998.203383   3398.737624    420.645561                    
PG29  26372.855677  -3377.295352   -528.386229   -468.270090                    
PG30  -8856.451252  13531.758092 -20968.622471   -507.340159                    
PG31  -1134.470710 -20183.748651  16855.229869   -160.433878                    
PG32  12040.345984 -15342.757682  18067.568428    -51.708786                    
*  2022  1 16 15 30  0.00000000                                                 
PG01 -21238.003088 -12551.695002  10009.222023    455.558766                    
PG02  12660.396269  20961.611973  10800.883492   -648.978268                    
PG03 -14286.180846  -4277.410828  21876.614671    -80.913874                    
PG04 -24510.267935  -1805.412703  10175.198590   -194.870523                    
PG05   7384.300114  19445.873080 -16590.762241    -68.306661                    
PG06  -1839.791129  17238.401417  20171.269993    172.462831                    
PG07 -17421.599988   2249.109730 -19683.776065    302.103518                    
PG08 -17428.001062  -8330.059437 -18397.118535    -52.613676                    
PG09 -25467.687871   7580.507762   -625.653085   -357.930176                    
PG10  11600.488035 -22380.204758  -7737.389123   -295.320798                    
PG11  10000.141492  22329.746679  10352.912498    -49.545570                    
PG12  12886.667069   7856.491896  21604.274821   -156.927120                    
PG13   9382.195918  13461.674502 -21071.390133    246.105690                    
PG14 -12986.242638  21664.337301  -8111.999533    -71.673976                    
PG15  18778.847045   6984.594078 -17993.194041    -91.290135                    
PG16  -2551.425268 -21875.203057 -14757.632599   -456.675369                    
PG17 -18307.282720  13356.064322  14325.750932    562.066713                    
PG18  16629.844181  -2881.625194 -20534.606373    259.447835                    
PG19 -10912.783668  14555.336088  19026.136964    106.149647                    
PG20   2405.579428  25543.958314  -7371.745396    516.941920                    
PG21 -21040.731217 -16721.542764   1678.952066    156.026803                    
PG22 -12231.850703 -13625.440576  19482.124873   -416.314771                    
PG23  15356.484334 -13482.402560 -16930.572411     10.383587                    
PG24  22065.370063  14145.275100   5201.312472    276.923983                    
PG25  16102.007697  -5815.997070  19953.519059    271.563408                    
PG26   4280.647235 -25972.634838  -1985.119363    174.697763                    
PG27  -6391.182585 -13784.112677 -21999.418168     71.597354                    
PG28  -9130.957341  25071.564177    548.899579    420.638194                    
PG29  26292.573213  -3173.832448   2363.630196   -468.274503                    
PG30 -10513.062230  11733.920278 -21304.799043   -507.342519                    
PG31    363.270676 -18754.293968  18493.186204   -160.435610                    
PG32  13980.994445 -15621.978631  16318.649939    -51.714300                    
EOF                                                                             
